{
  "type": "FeatureCollection",
  "features": [
    {
      "type": "Feature",
      "properties": {
        "norad_id": 66909,
        "name": "SILVERSAT",
        "group": "stations",
        "lat": -15.431769706855636,
        "lon": -98.10196017705304,
        "alt_km": 409.7550580531997,
        "timestamp": "2025-12-27T10:28:57.550251+00:00",
        "meta_object_name": "SILVERSAT",
        "meta_object_id": "1998-067XV",
        "meta_epoch": "2025-12-26T12:00:46.911744",
        "meta_mean_motion": 15.53512588,
        "meta_eccentricity": 0.0003773,
        "meta_inclination": 51.6312,
        "meta_ra_of_asc_node": 73.9315,
        "meta_arg_of_pericenter": 313.4073,
        "meta_mean_anomaly": 46.6603,
        "meta_ephemeris_type": 0,
        "meta_classification_type": "U",
        "meta_norad_cat_id": 66909,
        "meta_element_set_no": 999,
        "meta_rev_at_epoch": 375,
        "meta_bstar": 0.0010737,
        "meta_mean_motion_dot": 0.00069652,
        "meta_mean_motion_ddot": 0,
        "tle_line1": "1 66909U 98067XV  25360.50054296  .00069652  00000+0  10737-2 0  9994",
        "tle_line2": "2 66909  51.6312  73.9315 0003773 313.4073  46.6603 15.53512588  3752"
      },
      "geometry": {
        "type": "Point",
        "coordinates": [
          -98.10196017705304,
          -15.431769706855636
        ]
      }
    },
    {
      "type": "Feature",
      "properties": {
        "norad_id": 66910,
        "name": "1998-067XW",
        "group": "stations",
        "lat": -21.848409127822105,
        "lon": -92.23140267143101,
        "alt_km": 408.95851325694093,
        "timestamp": "2025-12-27T10:28:57.550261+00:00",
        "meta_object_name": "1998-067XW",
        "meta_object_id": "1998-067XW",
        "meta_epoch": "2025-12-26T15:03:47.074752",
        "meta_mean_motion": 15.53436341,
        "meta_eccentricity": 0.0003732,
        "meta_inclination": 51.6301,
        "meta_ra_of_asc_node": 73.2786,
        "meta_arg_of_pericenter": 284.7259,
        "meta_mean_anomaly": 75.3317,
        "meta_ephemeris_type": 0,
        "meta_classification_type": "U",
        "meta_norad_cat_id": 66910,
        "meta_element_set_no": 999,
        "meta_rev_at_epoch": 377,
        "meta_bstar": 0.0011547,
        "meta_mean_motion_dot": 0.00074776,
        "meta_mean_motion_ddot": 0,
        "tle_line1": "1 66910U 98067XW  25360.62762818  .00074776  00000+0  11547-2 0  9998",
        "tle_line2": "2 66910  51.6301  73.2786 0003732 284.7259  75.3317 15.53436341  3773"
      },
      "geometry": {
        "type": "Point",
        "coordinates": [
          -92.23140267143101,
          -21.848409127822105
        ]
      }
    },
    {
      "type": "Feature",
      "properties": {
        "norad_id": 66911,
        "name": "1998-067XX",
        "group": "stations",
        "lat": -39.520960945329136,
        "lon": -69.99291457192189,
        "alt_km": 407.79981359280464,
        "timestamp": "2025-12-27T10:28:57.550271+00:00",
        "meta_object_name": "1998-067XX",
        "meta_object_id": "1998-067XX",
        "meta_epoch": "2025-12-26T11:52:19.081056",
        "meta_mean_motion": 15.5396914,
        "meta_eccentricity": 0.0003493,
        "meta_inclination": 51.6301,
        "meta_ra_of_asc_node": 73.8915,
        "meta_arg_of_pericenter": 292.742,
        "meta_mean_anomaly": 67.3201,
        "meta_ephemeris_type": 0,
        "meta_classification_type": "U",
        "meta_norad_cat_id": 66911,
        "meta_element_set_no": 999,
        "meta_rev_at_epoch": 374,
        "meta_bstar": 0.0011709,
        "meta_mean_motion_dot": 0.00077346,
        "meta_mean_motion_ddot": 0,
        "tle_line1": "1 66911U 98067XX  25360.49466529  .00077346  00000+0  11709-2 0  9990",
        "tle_line2": "2 66911  51.6301  73.8915 0003493 292.7420  67.3201 15.53969140  3745"
      },
      "geometry": {
        "type": "Point",
        "coordinates": [
          -69.99291457192189,
          -39.520960945329136
        ]
      }
    },
    {
      "type": "Feature",
      "properties": {
        "norad_id": 66912,
        "name": "1998-067XY",
        "group": "stations",
        "lat": 23.194807039404456,
        "lon": -130.47584688758673,
        "alt_km": 408.8313738127108,
        "timestamp": "2025-12-27T10:28:57.550281+00:00",
        "meta_object_name": "1998-067XY",
        "meta_object_id": "1998-067XY",
        "meta_epoch": "2025-12-26T12:12:45.084960",
        "meta_mean_motion": 15.52489248,
        "meta_eccentricity": 0.0003823,
        "meta_inclination": 51.6314,
        "meta_ra_of_asc_node": 73.9869,
        "meta_arg_of_pericenter": 301.1826,
        "meta_mean_anomaly": 58.8789,
        "meta_ephemeris_type": 0,
        "meta_classification_type": "U",
        "meta_norad_cat_id": 66912,
        "meta_element_set_no": 999,
        "meta_rev_at_epoch": 374,
        "meta_bstar": 0.00078444,
        "meta_mean_motion_dot": 0.00048771,
        "meta_mean_motion_ddot": 0,
        "tle_line1": "1 66912U 98067XY  25360.50885515  .00048771  00000+0  78444-3 0  9993",
        "tle_line2": "2 66912  51.6314  73.9869 0003823 301.1826  58.8789 15.52489248  3742"
      },
      "geometry": {
        "type": "Point",
        "coordinates": [
          -130.47584688758673,
          23.194807039404456
        ]
      }
    }
  ]
}